DMSP 5D-3 F16 (USA 172) 
1 28054U 03048A   26028.95947616  .00000234  00000+0  14564-3 0  9990
2 28054  99.0021  51.7828 0007357 174.0716 275.9294 14.14445700149801
METEOSAT-9 (MSG-2)      
1 28912U 05049B   26028.71943404  .00000123  00000+0  00000+0 0  9994
2 28912   9.0446  55.5246 0001835 209.6181 167.4033  1.00266790  5604
DMSP 5D-3 F17 (USA 191) 
1 29522U 06050A   26028.93718024  .00000261  00000+0  15704-3 0  9991
2 29522  98.7401  38.3459 0011131  93.9490 266.2957 14.14944838992726
FENGYUN 3A              
1 32958U 08026A   26028.84064933  .00000173  00000+0  10277-3 0  9998
2 32958  98.6750 332.3893 0008915 162.7532 197.3949 14.19533138915638
GOES 14                 
1 35491U 09033A   26028.68294716  .00000117  00000+0  00000+0 0  9995
2 35491   1.3256  84.8674 0001370 252.9673 257.2294  1.00106992  5197
DMSP 5D-3 F18 (USA 210) 
1 35951U 09057A   26028.89715230  .00000422  00000+0  24177-3 0  9998
2 35951  98.8895  10.0780 0010142 289.4999  70.5079 14.14807572839890
EWS-G2 (GOES 15)        
1 36411U 10008A   26028.85580449  .00000039  00000+0  00000+0 0  9995
2 36411   0.9264  85.7923 0005319 194.4135 217.4757  1.00274166 58246
COMS 1                  
1 36744U 10032A   26028.77767939 -.00000345  00000+0  00000+0 0  9994
2 36744   4.4509  77.3950 0001132 235.6589 223.1183  1.00270788 49695
FENGYUN 3B              
1 37214U 10059A   26028.99750299  .00000099  00000+0  74665-4 0  9999
2 37214  98.9850  74.2911 0021440 219.2634 258.2685 14.14805364787745
SUOMI NPP               
1 37849U 11061A   26028.91916408  .00000155  00000+0  94467-4 0  9990
2 37849  98.7824 330.8488 0002045  39.4457 320.6868 14.19531289738686
METEOSAT-10 (MSG-3)     
1 38552U 12035B   26028.76641882 -.00000008  00000+0  00000+0 0  9991
2 38552   4.3407  61.6035 0002424 267.8449  74.4660  1.00266417 49452
METOP-B                 
1 38771U 12049A   26028.95563397  .00000196  00000+0  10959-3 0  9999
2 38771  98.6726  83.0983 0002846  47.9838 312.1581 14.21430167693486
INSAT-3D                
1 39216U 13038B   26028.73607413 -.00000337  00000+0  00000+0 0  9997
2 39216   1.5651  84.4098 0002088 191.7550 246.3198  1.00270538 45682
FENGYUN 3C              
1 39260U 13052A   26028.95639207  .00000213  00000+0  12922-3 0  9994
2 39260  98.4824   9.3448 0015733  65.9460 294.3359 14.15714615638865
METEOR-M 2              
1 40069U 14037A   26028.91182990  .00000576  00000+0  28296-3 0  9998
2 40069  98.4963   9.7032 0006916  82.2364 277.9599 14.21411882599539
HIMAWARI-8              
1 40267U 14060A   26028.73832748 -.00000272  00000+0  00000+0 0  9990
2 40267   0.0373 235.7358 0001242  55.6973 243.0026  1.00271086 41367
FENGYUN 2G              
1 40367U 14090A   26028.58756921 -.00000301  00000+0  00000+0 0  9998
2 40367   5.2836  74.5274 0001897 187.7807 176.6373  1.00266413 40604
METEOSAT-11 (MSG-4)     
1 40732U 15034A   26028.71241401  .00000065  00000+0  00000+0 0  9996
2 40732   2.8534  71.8365 0001050 233.8419  88.5190  1.00266762  5811
ELEKTRO-L 2             
1 41105U 15074A   26027.92299632 -.00000116  00000+0  00000+0 0  9994
2 41105   6.3388  72.2664 0003747 220.6932 151.9937  1.00272104 37106
INSAT-3DR               
1 41752U 16054A   26028.86969679 -.00000074  00000+0  00000+0 0  9993
2 41752   0.0322  93.8396 0014215 183.2465 238.1231  1.00270506 34422
HIMAWARI-9              
1 41836U 16064A   26028.73832748 -.00000272  00000+0  00000+0 0  9999
2 41836   0.0350 238.8779 0001062 104.9591 190.6925  1.00270419 33815
GOES 16                 
1 41866U 16071A   26028.68970721 -.00000087  00000+0  00000+0 0  9992
2 41866   0.1352  95.0042 0003221 190.0630 346.4593  1.00270965 33702
FENGYUN 4A              
1 41882U 16077A   26028.66362037 -.00000356  00000+0  00000+0 0  9998
2 41882   1.9656  81.8934 0005363 137.1367 271.3155  1.00261616 33531
CYGFM05                 
1 41884U 16078A   26028.53928377  .00035207  00000+0  60815-3 0  9998
2 41884  34.9598 100.9399 0009087 252.7927 107.1800 15.49907863507027
CYGFM04                 
1 41885U 16078B   26028.34554058  .00033178  00000+0  51586-3 0  9999
2 41885  34.9342  75.5746 0007310 280.6042  79.3857 15.52866315507182
CYGFM02                 
1 41886U 16078C   26028.49061617  .00036893  00000+0  53545-3 0  9994
2 41886  34.9430  72.2803 0008564 282.9744  77.0023 15.54723175507341
CYGFM01                 
1 41887U 16078D   26028.57725078  .00030061  00000+0  50909-3 0  9994
2 41887  34.9419 102.6978 0008317 248.6173 111.3662 15.50496471506972
CYGFM08                 
1 41888U 16078E   26028.53001998  .00031921  00000+0  51468-3 0  9996
2 41888  34.9450  85.4205 0009541 272.5244  87.4387 15.51845285507200
CYGFM07                 
1 41890U 16078G   26028.38521888  .00032987  00000+0  52020-3 0  9995
2 41890  34.9468  75.0791 0007642 286.9348  73.0537 15.52473795507203
CYGFM03                 
1 41891U 16078H   26028.48235103  .00032811  00000+0  51959-3 0  9995
2 41891  34.9425  76.3919 0007377 272.8463  87.1415 15.52361339507199
FENGYUN 3D              
1 43010U 17072A   26028.95797775  .00000451  00000+0  23492-3 0  9991
2 43010  98.9958   0.9922 0002505  85.7480 274.3981 14.19703224425237
NOAA 20 (JPSS-1)        
1 43013U 17073A   26028.86313978  .00000144  00000+0  89200-4 0  9993
2 43013  98.7648 329.6571 0000891  20.0014 340.1197 14.19541559424709
GOES 17                 
1 43226U 18022A   26028.64003254 -.00000179  00000+0  00000+0 0  9998
2 43226   0.5774  88.3127 0003087 202.8476 337.6325  1.00270779 29023
FENGYUN 2H              
1 43491U 18050A   26028.72610741 -.00000124  00000+0  00000+0 0  9997
2 43491   2.6694  80.8023 0002597 179.5001 208.0332  1.00266613 28044
METOP-C                 
1 43689U 18087A   26028.91142718  .00000193  00000+0  10826-3 0  9997
2 43689  98.6853  90.9411 0001230 158.4434 201.6795 14.21506133375045
GEO-KOMPSAT-2A          
1 43823U 18100A   26028.78725345  .00000000  00000+0  00000+0 0  9997
2 43823   0.0266  89.8571 0000680 287.7151 162.1499  1.00269242 26230
METEOR-M2 2             
1 44387U 19038A   26028.94435382  .00000339  00000+0  16661-3 0  9990
2 44387  98.9029  14.2655 0002265  71.4334 288.7090 14.24316618341474
ARKTIKA-M 1             
1 47719U 21016A   26028.92567634 -.00000181  00000+0  00000+0 0  9997
2 47719  63.1904  77.4788 7227402 269.3168  15.3211  2.00632155 35996
FENGYUN 3E              
1 49008U 21062A   26028.95833242 -.00000015  00000+0  13843-4 0  9995
2 49008  98.7500  33.9242 0002547 112.2873 247.8573 14.19887818236829
GOES 18                 
1 51850U 22021A   26028.99280819  .00000099  00000+0  00000+0 0  9996
2 51850   0.0150  99.6881 0000732 238.7238  10.2272  1.00270903  5194
NOAA 21 (JPSS-2)        
1 54234U 22150A   26028.89828222  .00000145  00000+0  89569-4 0  9997
2 54234  98.7511 329.6308 0000927 198.8651 161.2491 14.19540676166783
METEOSAT-12 (MTG-I1)    
1 54743U 22170C   26028.83516971 -.00000005  00000+0  00000+0 0  9997
2 54743   0.7010  23.6245 0002382 263.5961 141.2374  1.00268210 11589
TIANMU-1 03             
1 55973U 23039A   26028.94200225  .00023677  00000+0  54453-3 0  9996
2 55973  97.5127 197.9750 0002518 236.7103 123.3903 15.42654111159330
TIANMU-1 04             
1 55974U 23039B   26028.97555444  .00023790  00000+0  54028-3 0  9990
2 55974  97.5060 197.1823 0003246 231.7059 128.3897 15.43028824159349
TIANMU-1 05             
1 55975U 23039C   26028.98199128  .00022897  00000+0  52760-3 0  9993
2 55975  97.5106 197.6823 0002234 265.0139  95.0853 15.42604963159324
TIANMU-1 06             
1 55976U 23039D   26028.91139748  .00021881  00000+0  49663-3 0  9999
2 55976  97.5117 198.1144 0002603 258.4404 101.6551 15.43065629159331
FENGYUN 3G              
1 56232U 23055A   26027.33093889  .00044881  00000+0  67100-3 0  9994
2 56232  49.9947 352.2708 0004101  93.7831 266.3606 15.54500775158110
METEOR-M2 3             
1 57166U 23091A   26028.97856586  .00000025  00000+0  29760-4 0  9996
2 57166  98.6305  86.6765 0003523 200.3325 159.7714 14.24033058134703
TIANMU-1 07             
1 57399U 23101A   26028.92825762  .00010607  00000+0  38012-3 0  9999
2 57399  97.2814  82.7454 0002282 266.7588  93.3391 15.28909385140364
TIANMU-1 08             
1 57400U 23101B   26028.96264830  .00012282  00000+0  44101-3 0  9996
2 57400  97.2802  82.5651 0004078 269.7051  90.3722 15.28803159140361
TIANMU-1 09             
1 57401U 23101C   26028.94676110  .00012271  00000+0  43876-3 0  9999
2 57401  97.2760  82.0422 0003454 273.4845  86.6000 15.28944427140367
TIANMU-1 10             
1 57402U 23101D   26028.98118242  .00011832  00000+0  42315-3 0  9990
2 57402  97.2839  82.9758 0005185 273.4998  86.5650 15.28938345140360
FENGYUN 3F              
1 57490U 23111A   26028.94488140  .00000128  00000+0  80589-4 0  9993
2 57490  98.7012 101.4610 0001418 106.0264 254.1069 14.19909110129105
ARKTIKA-M 2             
1 58584U 23198A   26024.19964859  .00000217  00000+0  00000+0 0  9996
2 58584  63.2239 170.2658 6869981 267.9333  18.8453  2.00612775 15438
TIANMU-1 11             
1 58645U 23205A   26028.99269751  .00009833  00000+0  39253-3 0  9993
2 58645  97.3582  52.7997 0010568 129.5257 230.6917 15.25307615116296
TIANMU-1 12             
1 58646U 23205B   26028.95734866  .00010048  00000+0  40234-3 0  9995
2 58646  97.3571  52.5550 0009107 114.2927 245.9263 15.25210958116274
TIANMU-1 13             
1 58647U 23205C   26028.98951513  .00009976  00000+0  39890-3 0  9993
2 58647  97.3597  52.8082 0009508  99.3426 260.8887 15.25258581116270
TIANMU-1 14             
1 58648U 23205D   26028.97350134  .00009489  00000+0  37975-3 0  9996
2 58648  97.3531  52.0975 0010311 102.9109 257.3281 15.25236451116276
TIANMU-1 19             
1 58660U 23208A   26028.94971494  .00014814  00000+0  52898-3 0  9997
2 58660  97.4374 144.9269 0006328  91.1370 269.0595 15.28934852116030
TIANMU-1 20             
1 58661U 23208B   26028.89952896  .00014091  00000+0  48508-3 0  9997
2 58661  97.4311 145.3707 0008596  98.9401 261.2813 15.30124938116107
TIANMU-1 21             
1 58662U 23208C   26028.95001374  .00017296  00000+0  55129-3 0  9998
2 58662  97.4362 147.5465 0008444  95.0205 265.2001 15.32567921116222
TIANMU-1 22             
1 58663U 23208D   26028.95820032  .00013546  00000+0  48891-3 0  9991
2 58663  97.4368 144.9705 0004997 110.0721 250.1057 15.28612522116044
TIANMU-1 15             
1 58700U 24004A   26028.97091463  .00010342  00000+0  41428-3 0  9998
2 58700  97.4644 215.2851 0008286 114.6642 245.5459 15.25200625114545
TIANMU-1 16             
1 58701U 24004B   26028.95519854  .00010646  00000+0  42612-3 0  9999
2 58701  97.4583 214.6218 0006636 115.8123 244.3800 15.25229645114542
TIANMU-1 17             
1 58702U 24004C   26028.93850425  .00010632  00000+0  42515-3 0  9997
2 58702  97.4616 215.0393 0005780 116.0455 244.1378 15.25267344114534
TIANMU-1 18             
1 58703U 24004D   26028.98813940  .00010634  00000+0  42570-3 0  9997
2 58703  97.4635 215.2935 0005230 114.0972 246.0813 15.25234725114545
INSAT-3DS               
1 58990U 24033A   26028.78586500 -.00000152  00000+0  00000+0 0  9997
2 58990   0.0560 259.7366 0001958  66.0414 167.2307  1.00269781 45678
METEOR-M2 4             
1 59051U 24039A   26028.97578255  .00000068  00000+0  50262-4 0  9996
2 59051  98.6835 350.1606 0006468 205.1861 154.9002 14.22410490 99476
GOES 19                 
1 60133U 24119A   26028.55290235 -.00000244  00000+0  00000+0 0  9998
2 60133   0.0083 319.7977 0001111  15.9267 275.9338  1.00271259  5563
FENGYUN 3H              
1 65815U 25219A   26028.94145816  .00000173  00000+0  10194-3 0  9998
2 65815  98.6638 332.5203 0001534  93.9894 266.1458 14.19921186 17620
